{"type": "FeatureCollection", "features": [ {"type": "Feature", "properties": {"norad_id": 37216, "name": "COSMO-SKYMED 4", "group": "resource", "lat": -31.797043293986196, "lon": -2.2250804530102246, "alt_km": 629.2698863627083, "timestamp": "2025-12-27T14:26:30.173358+00:00", "meta": {"OBJECT_NAME": "COSMO-SKYMED 4", "OBJECT_ID": "2010-060A", "EPOCH": "2025-12-26T22:54:21.397248", "MEAN_MOTION": 14.82164757, "ECCENTRICITY": 0.0001417, "INCLINATION": 97.8809, "RA_OF_ASC_NODE": 182.0638, "ARG_OF_PERICENTER": 80.9318, "MEAN_ANOMALY": 279.2055, "EPHEMERIS_TYPE": 0, "CLASSIFICATION_TYPE": "U", "NORAD_CAT_ID": 37216, "ELEMENT_SET_NO": 999, "REV_AT_EPOCH": 81905, "BSTAR": 0.0001546, "MEAN_MOTION_DOT": 1.179e-05, "MEAN_MOTION_DDOT": 0}, "tle": {"line1": "1 37216U 10060A   25360.95441432  .00001179  00000+0  15460-3 0  9990", "line2": "2 37216  97.8809 182.0638 0001417  80.9318 279.2055 14.82164757819050"}}, "geometry": {"type": "Point", "coordinates": [-2.2250804530102246, -31.797043293986196]}}, {"type": "Feature", "properties": {"norad_id": 37387, "name": "RESOURCESAT-2", "group": "resource", "lat": -2.7092916840942385, "lon": -115.33389253823071, "alt_km": 827.3395258714181, "timestamp": "2025-12-27T14:26:30.173369+00:00", "meta": {"OBJECT_NAME": "RESOURCESAT-2", "OBJECT_ID": "2011-015A", "EPOCH": "2025-12-27T05:08:21.823872", "MEAN_MOTION": 14.21595488, "ECCENTRICITY": 0.00057191, "INCLINATION": 98.7858, "RA_OF_ASC_NODE": 64.6997, "ARG_OF_PERICENTER": 2.8787, "MEAN_ANOMALY": 357.2422, "EPHEMERIS_TYPE": 0, "CLASSIFICATION_TYPE": "U", "NORAD_CAT_ID": 37387, "ELEMENT_SET_NO": 999, "REV_AT_EPOCH": 76174, "BSTAR": 8.1299367e-05, "MEAN_MOTION_DOT": 1.34e-06, "MEAN_MOTION_DDOT": 0}, "tle": {"line1": "1 37387U 11015A   25361.21414148  .00000134  00000+0  81299-4 0  9998", "line2": "2 37387  98.7858  64.6997 0005719   2.8787 357.2422 14.21595488761747"}}, "geometry": {"type": "Point", "coordinates": [-115.33389253823071, -2.7092916840942385]}}, {"type": "Feature", "properties": {"norad_id": 37781, "name": "HAIYANG-2A", "group": "resource", "lat": 71.40365512594505, "lon": -148.4152165127872, "alt_km": 960.2395822874314, "timestamp": "2025-12-27T14:26:30.173380+00:00", "meta": {"OBJECT_NAME": "HAIYANG-2A", "OBJECT_ID": "2011-043A", "EPOCH": "2025-12-27T06:57:46.588320", "MEAN_MOTION": 13.7883598, "ECCENTRICITY": 0.00015552, "INCLINATION": 99.3384, "RA_OF_ASC_NODE": 2.0005, "ARG_OF_PERICENTER": 64.0444, "MEAN_ANOMALY": 296.0868, "EPHEMERIS_TYPE": 0, "CLASSIFICATION_TYPE": "U", "NORAD_CAT_ID": 37781, "ELEMENT_SET_NO": 999, "REV_AT_EPOCH": 72299, "BSTAR": -6.844408e-06, "MEAN_MOTION_DOT": -5.1e-07, "MEAN_MOTION_DDOT": 0}, "tle": {"line1": "1 37781U 11043A   25361.29012255 -.00000051  00000+0 -68444-5 0  9996", "line2": "2 37781  99.3384   2.0005 0001555  64.0444 296.0868 13.78835980722999"}}, "geometry": {"type": "Point", "coordinates": [-148.4152165127872, 71.40365512594505]}}, {"type": "Feature", "properties": {"norad_id": 37791, "name": "RASAT", "group": "resource", "lat": -58.20184043849152, "lon": 103.85664713588763, "alt_km": 671.9182395542975, "timestamp": "2025-12-27T14:26:30.173390+00:00", "meta": {"OBJECT_NAME": "RASAT", "OBJECT_ID": "2011-044D", "EPOCH": "2025-12-27T06:56:57.090624", "MEAN_MOTION": 14.67928891, "ECCENTRICITY": 0.00211473, "INCLINATION": 98.0637, "RA_OF_ASC_NODE": 90.3306, "ARG_OF_PERICENTER": 20.9113, "MEAN_ANOMALY": 71.4712, "EPHEMERIS_TYPE": 0, "CLASSIFICATION_TYPE": "U", "NORAD_CAT_ID": 37791, "ELEMENT_SET_NO": 999, "REV_AT_EPOCH": 76796, "BSTAR": 8.9454836e-05, "MEAN_MOTION_DOT": 4.64e-06, "MEAN_MOTION_DDOT": 0}, "tle": {"line1": "1 37791U 11044D   25361.28954966  .00000464  00000+0  89455-4 0  9991", "line2": "2 37791  98.0637  90.3306 0021147  20.9113  71.4712 14.67928891767966"}}, "geometry": {"type": "Point", "coordinates": [103.85664713588763, -58.20184043849152]}}, {"type": "Feature", "properties": {"norad_id": 37841, "name": "SRMSAT", "group": "resource", "lat": 7.178112878277714, "lon": 177.7198372185459, "alt_km": 844.5070168114844, "timestamp": "2025-12-27T14:26:30.173401+00:00", "meta": {"OBJECT_NAME": "SRMSAT", "OBJECT_ID": "2011-058D", "EPOCH": "2025-12-27T03:47:53.066112", "MEAN_MOTION": 14.11516416, "ECCENTRICITY": 0.00119792, "INCLINATION": 19.9733, "RA_OF_ASC_NODE": 20.69, "ARG_OF_PERICENTER": 110.9492, "MEAN_ANOMALY": 309.0242, "EPHEMERIS_TYPE": 0, "CLASSIFICATION_TYPE": "U", "NORAD_CAT_ID": 37841, "ELEMENT_SET_NO": 999, "REV_AT_EPOCH": 73348, "BSTAR": 0.0001065228, "MEAN_MOTION_DOT": 4.61e-06, "MEAN_MOTION_DDOT": 0}, "tle": {"line1": "1 37841U 11058D   25361.15825308  .00000461  00000+0  10652-3 0  9994", "line2": "2 37841  19.9733  20.6900 0011979 110.9492 309.0242 14.11516416733482"}}, "geometry": {"type": "Point", "coordinates": [177.7198372185459, 7.178112878277714]}}, {"type": "Feature", "properties": {"norad_id": 38012, "name": "PLEIADES 1A", "group": "resource", "lat": -42.7476048454225, "lon": 81.78014553359651, "alt_km": 704.783033834131, "timestamp": "2025-12-27T14:26:30.173411+00:00", "meta": {"OBJECT_NAME": "PLEIADES 1A", "OBJECT_ID": "2011-076F", "EPOCH": "2025-12-27T08:23:19.258080", "MEAN_MOTION": 14.58575272, "ECCENTRICITY": 0.00010451, "INCLINATION": 98.1802, "RA_OF_ASC_NODE": 73.8914, "ARG_OF_PERICENTER": 77.9496, "MEAN_ANOMALY": 355.3236, "EPHEMERIS_TYPE": 0, "CLASSIFICATION_TYPE": "U", "NORAD_CAT_ID": 38012, "ELEMENT_SET_NO": 999, "REV_AT_EPOCH": 74694, "BSTAR": 0.00013088602, "MEAN_MOTION_DOT": 5.63e-06, "MEAN_MOTION_DDOT": 0}, "tle": {"line1": "1 38012U 11076F   25361.34952845  .00000563  00000+0  13089-3 0  9993", "line2": "2 38012  98.1802  73.8914 0001045  77.9496 355.3236 14.58575272746941"}}, "geometry": {"type": "Point", "coordinates": [81.78014553359651, -42.7476048454225]}}, {"type": "Feature", "properties": {"norad_id": 38038, "name": "ZIYUAN 1-02C (ZY 1-02C)", "group": "resource", "lat": -26.91509119990869, "lon": -116.97815836252941, "alt_km": 772.342502430879, "timestamp": "2025-12-27T14:26:30.173421+00:00", "meta": {"OBJECT_NAME": "ZIYUAN 1-02C (ZY 1-02C)", "OBJECT_ID": "2011-079A", "EPOCH": "2025-12-27T07:12:17.890848", "MEAN_MOTION": 14.38028569, "ECCENTRICITY": 0.00075873, "INCLINATION": 98.431, "RA_OF_ASC_NODE": 67.0441, "ARG_OF_PERICENTER": 100.5988, "MEAN_ANOMALY": 346.346, "EPHEMERIS_TYPE": 0, "CLASSIFICATION_TYPE": "U", "NORAD_CAT_ID": 38038, "ELEMENT_SET_NO": 999, "REV_AT_EPOCH": 73450, "BSTAR": 0.00020635077, "MEAN_MOTION_DOT": 5.81e-06, "MEAN_MOTION_DDOT": 0}, "tle": {"line1": "1 38038U 11079A   25361.30020707  .00000581  00000+0  20635-3 0  9998", "line2": "2 38038  98.4310  67.0441 0007587 100.5988 346.3460 14.38028569734500"}}, "geometry": {"type": "Point", "coordinates": [-116.97815836252941, -26.91509119990869]}}, {"type": "Feature", "properties": {"norad_id": 38338, "name": "ARIRANG-3 (KOMPSAT-3)", "group": "resource", "lat": 22.627773632202707, "lon": -47.198379346547995, "alt_km": 687.7017678490074, "timestamp": "2025-12-27T14:26:30.173431+00:00", "meta": {"OBJECT_NAME": "ARIRANG-3 (KOMPSAT-3)", "OBJECT_ID": "2012-025B", "EPOCH": "2025-12-27T07:45:57.299904", "MEAN_MOTION": 14.61732043, "ECCENTRICITY": 0.00046368, "INCLINATION": 98.3343, "RA_OF_ASC_NODE": 316.0245, "ARG_OF_PERICENTER": 285.5514, "MEAN_ANOMALY": 74.5175, "EPHEMERIS_TYPE": 0, "CLASSIFICATION_TYPE": "U", "NORAD_CAT_ID": 38338, "ELEMENT_SET_NO": 999, "REV_AT_EPOCH": 72623, "BSTAR": 0.0001509273, "MEAN_MOTION_DOT": 7.04e-06, "MEAN_MOTION_DDOT": 0}, "tle": {"line1": "1 38338U 12025B   25361.32357986  .00000704  00000+0  15093-3 0  9996", "line2": "2 38338  98.3343 316.0245 0004636 285.5514  74.5175 14.61732043726237"}}, "geometry": {"type": "Point", "coordinates": [-47.198379346547995, 22.627773632202707]}}, {"type": "Feature", "properties": {"norad_id": 38709, "name": "EXACTVIEW-1 (ADS-1B)", "group": "resource", "lat": -34.17595855073956, "lon": -75.84859085100408, "alt_km": 815.5221350792372, "timestamp": "2025-12-27T14:26:30.173441+00:00", "meta": {"OBJECT_NAME": "EXACTVIEW-1 (ADS-1B)", "OBJECT_ID": "2012-039C", "EPOCH": "2025-12-27T06:41:45.184416", "MEAN_MOTION": 14.24913949, "ECCENTRICITY": 0.00100468, "INCLINATION": 98.964, "RA_OF_ASC_NODE": 109.9743, "ARG_OF_PERICENTER": 310.2244, "MEAN_ANOMALY": 49.8055, "EPHEMERIS_TYPE": 0, "CLASSIFICATION_TYPE": "U", "NORAD_CAT_ID": 38709, "ELEMENT_SET_NO": 999, "REV_AT_EPOCH": 69822, "BSTAR": 9.8874107e-05, "MEAN_MOTION_DOT": 1.85e-06, "MEAN_MOTION_DDOT": 0}, "tle": {"line1": "1 38709U 12039C   25361.27899519  .00000185  00000+0  98874-4 0  9992", "line2": "2 38709  98.9640 109.9743 0010046 310.2244  49.8055 14.24913949698229"}}, "geometry": {"type": "Point", "coordinates": [-75.84859085100408, -34.17595855073956]}}, {"type": "Feature", "properties": {"norad_id": 38755, "name": "SPOT 6", "group": "resource", "lat": -58.922254169667774, "lon": -127.65304752559378, "alt_km": 705.8188410304792, "timestamp": "2025-12-27T14:26:30.173451+00:00", "meta": {"OBJECT_NAME": "SPOT 6", "OBJECT_ID": "2012-047A", "EPOCH": "2025-12-27T06:45:34.632576", "MEAN_MOTION": 14.58544812, "ECCENTRICITY": 0.0001229, "INCLINATION": 98.1549, "RA_OF_ASC_NODE": 65.7964, "ARG_OF_PERICENTER": 78.8165, "MEAN_ANOMALY": 281.3173, "EPHEMERIS_TYPE": 0, "CLASSIFICATION_TYPE": "U", "NORAD_CAT_ID": 38755, "ELEMENT_SET_NO": 999, "REV_AT_EPOCH": 70799, "BSTAR": 7.4575105e-05, "MEAN_MOTION_DOT": 3.01e-06, "MEAN_MOTION_DDOT": 0}, "tle": {"line1": "1 38755U 12047A   25361.28165084  .00000301  00000+0  74575-4 0  9998", "line2": "2 38755  98.1549  65.7964 0001229  78.8165 281.3173 14.58544812707991"}}, "geometry": {"type": "Point", "coordinates": [-127.65304752559378, -58.922254169667774]}}]}